NORAD_CAT_ID,OBJECT_NAME,OBJECT_TYPE,EPOCH,MEAN_MOTION,ECCENTRICITY,INCLINATION,RA_OF_ASC_NODE,ARG_OF_PERICENTER,MEAN_ANOMALY,BSTAR,MEAN_MOTION_DOT,MEAN_MOTION_DDOT,TLE_LINE0,TLE_LINE1,TLE_LINE2,SEMIMAJOR_AXIS,PERIOD,APOGEE,PERIGEE,DECAYED
53716.0,STARLINK-4699,PAYLOAD,2023-05-31 15:36:42,15.08841666,0.0001132,53.2159,121.5061,86.6131,273.499,4.9469e-05,5e-06,0.0,0 STARLINK-4699,1 53716U 22107S   23151.65048766  .00000500  00000-0  49469-4 0  9999,2 53716  53.2159 121.5061 0001132  86.6131 273.4990 15.08841666 41023,6917.875,95.437,540.523,538.957,0.0
53716.0,STARLINK-4699,PAYLOAD,2023-06-01 02:44:24,15.0883647,0.0001196,53.2164,119.4255,86.3378,273.7751,8.8626e-06,-1.47e-06,0.0,0 STARLINK-4699,1 53716U 22107S   23152.11417278 -.00000147  00000-0  88626-5 0  9996,2 53716  53.2164 119.4255 0001196  86.3378 273.7751 15.08836470 41092,6917.891,95.438,540.584,538.929,0.0
53716.0,STARLINK-4699,PAYLOAD,2023-06-01 04:19:47,15.08840075,0.0001295,53.2162,119.1266,95.9374,264.1765,3.3208e-05,2.41e-06,0.0,0 STARLINK-4699,1 53716U 22107S   23152.18040949  .00000241  00000-0  33208-4 0  9999,2 53716  53.2162 119.1266 0001295  95.9374 264.1765 15.08840075 41557,6917.88,95.438,540.641,538.849,0.0
53716.0,STARLINK-4699,PAYLOAD,2023-06-02 04:10:34,15.08840423,0.0001196,53.2159,114.6672,84.7548,275.3581,-1.0148e-05,-4.49e-06,0.0,0 STARLINK-4699,1 53716U 22107S   23153.17401167 -.00000449  00000-0 -10148-4 0  9992,2 53716  53.2159 114.6672 0001196  84.7548 275.3581 15.08840423 41257,6917.879,95.438,540.571,538.917,0.0
53716.0,STARLINK-4699,PAYLOAD,2023-06-03 04:01:24,15.08816081,0.000134,53.2163,110.2037,90.7237,269.3909,-0.00010627,-1.978e-05,0.0,0 STARLINK-4699,1 53716U 22107S   23154.16763998 -.00001978  00000-0 -10627-3 0  9994,2 53716  53.2163 110.2037 0001340  90.7237 269.3909 15.08816081 41409,6917.954,95.439,540.746,538.891,0.0
53716.0,STARLINK-4699,PAYLOAD,2023-06-03 21:30:38,15.08830925,0.0001487,53.2162,106.9359,95.9738,264.1424,6.1532e-06,-1.9e-06,0.0,0 STARLINK-4699,1 53716U 22107S   23154.89627347 -.00000190  00000-0  61532-5 0  9998,2 53716  53.2162 106.9359 0001487  95.9738 264.1424 15.08830925 41961,6917.908,95.438,540.802,538.744,0.0
53716.0,STARLINK-4699,PAYLOAD,2023-06-04 02:16:47,15.08838586,0.0001317,53.2163,106.0445,72.4594,287.6542,7.4225e-05,8.94e-06,0.0,0 STARLINK-4699,1 53716U 22107S   23155.09498861  .00000894  00000-0  74225-4 0  9990,2 53716  53.2163 106.0445 0001317  72.4594 287.6542 15.08838586 41547,6917.885,95.438,540.661,538.839,0.0
53716.0,STARLINK-4699,PAYLOAD,2023-06-04 03:52:09,15.08844022,0.0001332,53.2171,105.7465,92.4342,267.6802,0.00011795,1.59e-05,0.0,0 STARLINK-4699,1 53716U 22107S   23155.16122341  .00001590  00000-0  11795-3 0  9991,2 53716  53.2171 105.7465 0001332  92.4342 267.6802 15.08844022 41554,6917.868,95.437,540.655,538.812,0.0
53716.0,STARLINK-4699,PAYLOAD,2023-06-05 03:42:55,15.08877074,0.0001061,53.2169,101.2858,88.8066,271.3048,-5.457e-05,-1.157e-05,0.0,0 STARLINK-4699,1 53716U 22107S   23156.15481151 -.00001157  00000-0 -54570-4 0  9998,2 53716  53.2169 101.2858 0001061  88.8066 271.3048 15.08877074 41703,6917.767,95.435,540.366,538.898,0.0
53716.0,STARLINK-4699,PAYLOAD,2023-06-05 06:53:42,15.08856756,0.0001328,53.2168,100.6906,94.7961,265.3183,0.00032714,4.925e-05,0.0,0 STARLINK-4699,1 53716U 22107S   23156.28729387  .00004925  00000-0  32714-3 0  9997,2 53716  53.2168 100.6906 0001328  94.7961 265.3183 15.08856756 41724,6917.829,95.436,540.613,538.775,0.0
53716.0,STARLINK-4699,PAYLOAD,2023-06-05 19:36:48,15.08852017,0.0001696,53.216,98.308,115.9884,244.1283,2.2089e-05,6.4e-07,0.0,0 STARLINK-4699,1 53716U 22107S   23156.81722261  .00000064  00000-0  22089-4 0  9995,2 53716  53.2160  98.3080 0001696 115.9884 244.1283 15.08852017 42251,6917.844,95.437,540.882,538.535,0.0
53716.0,STARLINK-4699,PAYLOAD,2023-06-06 00:22:57,15.08851667,0.0001584,53.2158,97.4173,109.7031,250.4132,2.7923e-05,1.57e-06,0.0,0 STARLINK-4699,1 53716U 22107S   23157.01594171  .00000157  00000-0  27923-4 0  9990,2 53716  53.2158  97.4173 0001584 109.7031 250.4132 15.08851667 41838,6917.845,95.437,540.806,538.614,0.0
53716.0,STARLINK-4699,PAYLOAD,2023-06-06 03:33:43,15.08852033,0.0001262,53.2166,96.8242,92.3277,267.7859,5.3714e-05,5.67e-06,0.0,0 STARLINK-4699,1 53716U 22107S   23157.14842125  .00000567  00000-0  53714-4 0  9991,2 53716  53.2166  96.8242 0001262  92.3277 267.7859 15.08852033 42307,6917.844,95.437,540.582,538.836,0.0
53716.0,STARLINK-4699,PAYLOAD,2023-06-06 19:27:35,15.08850785,0.0001294,53.2166,93.8515,95.7606,264.3533,-7.1461e-05,-1.425e-05,0.0,0 STARLINK-4699,1 53716U 22107S   23157.81082194 -.00001425  00000-0 -71461-4 0  9992,2 53716  53.2166  93.8515 0001294  95.7606 264.3533 15.08850785 42400,6917.847,95.437,540.608,538.817,0.0
53716.0,STARLINK-4699,PAYLOAD,2023-06-07 01:49:07,15.08845226,0.0001391,53.2165,92.6621,94.3619,265.7532,-0.00011443,-2.109e-05,0.0,0 STARLINK-4699,1 53716U 22107S   23158.07577806 -.00002109  00000-0 -11443-3 0  9993,2 53716  53.2165  92.6621 0001391  94.3619 265.7532 15.08845226 41992,6917.864,95.437,540.692,538.767,0.0
53716.0,STARLINK-4699,PAYLOAD,2023-06-07 03:24:30,15.08850968,0.0001344,53.2171,92.3645,99.0147,261.0997,-6.2019e-05,-1.275e-05,0.0,0 STARLINK-4699,1 53716U 22107S   23158.14201925 -.00001275  00000-0 -62019-4 0  9996,2 53716  53.2171  92.3645 0001344  99.0147 261.0997 15.08850968 42453,6917.847,95.437,540.642,538.782,0.0
53716.0,STARLINK-4699,PAYLOAD,2023-06-07 19:18:22,15.08837293,0.0001356,53.2175,89.391,97.3965,262.7181,5.2422e-05,5.46e-06,0.0,0 STARLINK-4699,1 53716U 22107S   23158.80442410  .00000546  00000-0  52422-4 0  9990,2 53716  53.2175  89.3910 0001356  97.3965 262.7181 15.08837293 42101,6917.889,95.438,540.692,538.816,0.0
53716.0,STARLINK-4699,PAYLOAD,2023-06-08 04:50:40,15.0884312,0.000139,53.2172,87.6065,94.4181,265.697,7.0603e-05,8.36e-06,0.0,0 STARLINK-4699,1 53716U 22107S   23159.20186027  .00000836  00000-0  70603-4 0  9997,2 53716  53.2172  87.6065 0001390  94.4181 265.6970 15.08843120 42616,6917.871,95.437,540.697,538.774,0.0
53716.0,STARLINK-4699,PAYLOAD,2023-06-09 01:30:41,15.0884272,0.0001408,53.2172,83.7402,97.1312,262.984,9.7663e-05,1.267e-05,0.0,0 STARLINK-4699,1 53716U 22107S   23160.06298044  .00001267  00000-0  97663-4 0  9990,2 53716  53.2172  83.7402 0001408  97.1312 262.9840 15.08842720 42749,6917.872,95.437,540.711,538.763,0.0
53716.0,STARLINK-4699,PAYLOAD,2023-06-10 01:21:28,15.08840905,0.0001116,53.217,79.2792,94.6455,265.4665,7.8017e-05,9.54e-06,0.0,0 STARLINK-4699,1 53716U 22107S   23161.05658267  .00000954  00000-0  78017-4 0  9991,2 53716  53.2170  79.2792 0001116  94.6455 265.4665 15.08840905 42448,6917.878,95.437,540.515,538.971,0.0
53716.0,STARLINK-4699,PAYLOAD,2023-06-11 10:44:34,15.08837911,0.0001191,53.2172,73.0351,84.6751,275.4377,6.4538e-05,7.39e-06,0.0,0 STARLINK-4699,1 53716U 22107S   23162.44762596  .00000739  00000-0  64538-4 0  9990,2 53716  53.2172  73.0351 0001191  84.6751 275.4377 15.08837911 43102,6917.887,95.438,540.576,538.928,0.0
53716.0,STARLINK-4699,PAYLOAD,2023-06-11 17:06:07,15.08838497,0.0001325,53.2172,71.8458,81.4333,278.6809,3.7276e-05,3.05e-06,0.0,0 STARLINK-4699,1 53716U 22107S   23162.71258768  .00000305  00000-0  37276-4 0  9999,2 53716  53.2172  71.8458 0001325  81.4333 278.6809 15.08838497 42694,6917.885,95.438,540.667,538.833,0.0
53716.0,STARLINK-4699,PAYLOAD,2023-06-11 18:41:30,15.08838332,0.0001321,53.2172,71.5484,81.9102,278.204,3.4161e-05,2.56e-06,0.0,0 STARLINK-4699,1 53716U 22107S   23162.77882787  .00000256  00000-0  34161-4 0  9994,2 53716  53.2172  71.5484 0001321  81.9102 278.2040 15.08838332 43158,6917.885,95.438,540.664,538.837,0.0
53716.0,STARLINK-4699,PAYLOAD,2023-06-12 10:35:22,15.0883581,0.0001179,53.2184,68.579,104.2036,255.9088,1.4728e-05,-5.3e-07,0.0,0 STARLINK-4699,1 53716U 22107S   23163.44123060 -.00000053  00000-0  14728-4 0  9994,2 53716  53.2184  68.5790 0001179 104.2036 255.9088 15.08835810 43256,6917.893,95.438,540.574,538.943,0.0
53716.0,STARLINK-4699,PAYLOAD,2023-06-13 02:29:13,15.08840774,0.0001224,53.2183,65.6055,112.337,247.7752,3.5897e-05,2.84e-06,0.0,0 STARLINK-4699,1 53716U 22107S   23164.10362815  .00000284  00000-0  35897-4 0  9996,2 53716  53.2183  65.6055 0001224 112.3370 247.7752 15.08840774 42902,6917.878,95.438,540.59,538.896,0.0
53716.0,STARLINK-4699,PAYLOAD,2023-06-14 02:19:59,15.08856847,0.0001052,53.2176,61.1434,95.5365,264.5747,-7.9732e-05,-1.557e-05,0.0,0 STARLINK-4699,1 53716U 22107S   23165.09721893 -.00001557  00000-0 -79732-4 0  9992,2 53716  53.2176  61.1434 0001052  95.5365 264.5747 15.08856847 43057,6917.829,95.436,540.422,538.966,0.0
53716.0,STARLINK-4699,PAYLOAD,2023-06-14 16:38:29,15.08823419,0.000125,53.2165,58.4642,92.4476,267.6659,0.00028823,4.3e-05,0.0,0 STARLINK-4699,1 53716U 22107S   23165.69339528  .00004300  00000-0  28823-3 0  9999,2 53716  53.2165  58.4642 0001250  92.4476 267.6659 15.08823419 43149,6917.931,95.439,540.661,538.931,0.0
53716.0,STARLINK-4699,PAYLOAD,2023-06-15 02:10:47,15.08840769,0.0001209,53.217,56.6816,88.029,272.084,3.5215e-05,2.73e-06,0.0,0 STARLINK-4699,1 53716U 22107S   23166.09083046  .00000273  00000-0  35215-4 0  9994,2 53716  53.2170  56.6816 0001209  88.0290 272.0840 15.08840769 43203,6917.878,95.438,540.579,538.907,0.0
53716.0,STARLINK-4699,PAYLOAD,2023-06-15 16:29:15,15.08843977,0.0001124,53.2176,54.0046,93.0522,267.0599,8.5516e-07,-2.74e-06,0.0,0 STARLINK-4699,1 53716U 22107S   23166.68698967 -.00000274  00000-0  85516-6 0  9996,2 53716  53.2176  54.0046 0001124  93.0522 267.0599 15.08843977 43744,6917.868,95.437,540.511,538.956,0.0
53716.0,STARLINK-4699,PAYLOAD,2023-06-16 02:01:33,15.0885198,0.0001138,53.2164,52.2198,110.7874,249.3241,3.6442e-05,2.92e-06,0.0,0 STARLINK-4699,1 53716U 22107S   23167.08442121  .00000292  00000-0  36442-4 0  9991,2 53716  53.2164  52.2198 0001138 110.7874 249.3241 15.08851980 43358,6917.844,95.437,540.496,538.922,0.0
